OBJECT_NAME,OBJECT_ID,EPOCH,MEAN_MOTION,ECCENTRICITY,INCLINATION,RA_OF_ASC_NODE,ARG_OF_PERICENTER,MEAN_ANOMALY,EPHEMERIS_TYPE,CLASSIFICATION_TYPE,NORAD_CAT_ID,ELEMENT_SET_NO,REV_AT_EPOCH,BSTAR,MEAN_MOTION_DOT,MEAN_MOTION_DDOT
ONEWEB-0012,2019-010A,2026-06-17T02:25:42.191328,13.16594553,.0001938,87.9099,228.8025,85.4271,274.7081,0,U,44057,999,35155,.18913E-3,.85E-6,0
ONEWEB-0010,2019-010B,2026-06-17T03:02:10.728384,13.16595205,.0001877,87.9099,228.7931,106.7443,253.3894,0,U,44058,999,35160,-.31271E-4,.1E-7,0
ONEWEB-0008,2019-010C,2026-06-17T03:38:39.166944,13.16595962,.0002323,87.9095,228.7837,98.1896,261.9499,0,U,44059,999,35172,.26325E-3,.113E-5,0
ONEWEB-0007,2019-010D,2026-06-16T23:00:36.773280,13.15549203,.0001667,87.9003,259.2666,98.8702,261.2617,0,U,44060,999,35134,-.14549E-3,-.42E-6,0
ONEWEB-0006,2019-010E,2026-06-16T23:06:17.987616,13.15549125,.0001868,87.9016,259.2300,103.4182,256.7157,0,U,44061,999,35139,-.2467E-3,-.8E-6,0
ONEWEB-0011,2019-010F,2026-06-17T07:28:16.866048,13.15547413,.0002088,87.9015,259.1704,105.2638,254.8723,0,U,44062,999,35143,.37497E-3,.154E-5,0
ONEWEB-0013,2020-008A,2026-06-17T02:14:49.123104,13.09457880,.0002263,87.8523,52.8441,54.6440,305.4898,0,U,45131,999,30605,-.19216E-2,-.649E-5,0
ONEWEB-0017,2020-008B,2026-06-17T01:49:33.737088,13.10375384,.0001659,87.8834,36.2911,88.1581,271.9736,0,U,45132,999,30793,.16821E-2,.6E-5,0
ONEWEB-0020,2020-008C,2026-06-17T02:56:23.207712,13.10408646,.0001771,87.8836,36.2805,81.5863,278.5465,0,U,45133,999,30833,.90495E-2,.3174E-4,0
ONEWEB-0021,2020-008D,2026-06-17T03:17:57.502176,13.10388828,.0001815,87.8835,36.2932,80.6911,279.4421,0,U,45134,999,30864,.39716E-2,.14E-4,0
ONEWEB-0023,2020-008F,2026-06-17T01:43:34.389120,13.10382590,.0001905,87.8840,36.2881,78.5866,281.5476,0,U,45136,999,30806,.33426E-2,.118E-4,0
ONEWEB-0024,2020-008G,2026-06-17T02:54:08.784000,13.10436221,.0002054,87.8849,36.2720,82.4421,277.6939,0,U,45137,999,30823,.19151E-1,.6709E-4,0
ONEWEB-0025,2020-008H,2026-06-17T02:53:44.941056,13.10435347,.0002579,87.8853,36.2628,88.5805,271.5617,0,U,45138,999,30856,.19712E-1,.6905E-4,0
ONEWEB-0026,2020-008J,2026-06-17T01:58:26.394816,13.11416219,.0001809,87.8884,21.0892,90.7533,269.3803,0,U,45139,999,31109,-.12846E-2,-.443E-5,0
ONEWEB-0028,2020-008K,2026-06-17T12:22:15.266208,13.11413347,.0001974,87.8878,21.0114,68.1693,291.9645,0,U,45140,999,30866,.65203E-3,.244E-5,0
ONEWEB-0032,2020-008L,2026-06-17T01:52:09.350400,13.10374379,.0002007,87.8833,36.2924,69.6915,290.4428,0,U,45141,999,30828,.18073E-2,.644E-5,0
ONEWEB-0033,2020-008M,2026-06-17T03:05:56.330016,13.10414748,.0002154,87.8829,36.2956,100.3454,259.7916,0,U,45142,999,30820,.14829E-1,.5195E-4,0
ONEWEB-0035,2020-008N,2026-06-17T01:44:59.032608,13.10376973,.0001719,87.8832,36.2934,85.1371,274.9953,0,U,45143,999,30792,.11798E-2,.425E-5,0
ONEWEB-0036,2020-008P,2026-06-17T01:09:05.018400,13.09982731,.0001935,87.8848,36.3101,77.4874,282.6470,0,U,45144,999,30834,-.17225E-2,-.585E-5,0
ONEWEB-0038,2020-008Q,2026-06-17T02:13:17.832864,13.11418895,.0000384,87.8900,21.0960,17.9092,342.2050,0,U,45145,999,31031,-.65484E-3,-.219E-5,0
ONEWEB-0039,2020-008R,2026-06-17T03:10:48.991872,13.10375430,.000191,87.8833,36.2791,66.6330,293.4998,0,U,45146,999,30815,-.11676E-2,-.395E-5,0
ONEWEB-0040,2020-008S,2026-06-16T21:31:21.696096,13.10390462,.0001636,87.8826,36.3351,79.9024,280.2288,0,U,45147,999,30782,-.15988E-2,-.546E-5,0
ONEWEB-0043,2020-008U,2026-06-17T03:03:32.410944,13.10422139,.0002213,87.8827,36.2823,69.7276,290.4089,0,U,45149,999,30817,.14907E-1,.5223E-4,0
ONEWEB-0044,2020-008V,2026-06-17T00:04:23.741184,13.10373307,.0001773,87.8841,36.3036,76.2453,283.8872,0,U,45150,999,30845,.17659E-2,.629E-5,0
ONEWEB-0045,2020-008W,2026-06-17T02:05:46.384224,13.11417468,.0001772,87.8896,21.0794,81.5962,278.5367,0,U,45151,999,31039,-.1629E-2,-.565E-5,0
ONEWEB-0047,2020-008X,2026-06-17T01:44:34.355040,13.10380832,.0001606,87.8840,36.2893,85.0241,275.1070,0,U,45152,999,30818,.25957E-2,.919E-5,0
ONEWEB-0048,2020-008Y,2026-06-17T03:27:33.208704,13.10376758,.000173,87.8833,36.2962,83.2277,276.9047,0,U,45153,999,30780,.52611E-3,.196E-5,0
ONEWEB-0049,2020-008Z,2026-06-17T03:32:08.028096,13.10384987,.0002224,87.8830,36.2850,80.7041,279.4337,0,U,45154,999,30802,.39193E-2,.1381E-4,0
ONEWEB-0051,2020-008AA,2026-06-17T02:03:20.477088,13.11418812,.000183,87.8887,21.0873,85.1292,275.0045,0,U,45155,999,31107,-.12577E-2,-.433E-5,0
ONEWEB-0052,2020-008AB,2026-06-17T02:11:17.864736,13.10361400,.0001802,87.8842,36.2789,94.2942,265.8391,0,U,45156,999,30792,-.14239E-2,-.484E-5,0
ONEWEB-0053,2020-008AC,2026-06-17T02:58:47.817120,13.10403787,.0002557,87.8836,36.3014,72.5685,287.5722,0,U,45157,999,30790,.72834E-2,.2557E-4,0
